{
  "links" : {
    "next" : "https://api.nasa.gov/neo/rest/v1/feed?start_date=1998-12-16&end_date=1998-12-16&detailed=true&api_key=t0TVs3DtDT2H8Oy2Zy8m2eVrNsAVKAexjcZXUckd",
    "prev" : "https://api.nasa.gov/neo/rest/v1/feed?start_date=1998-12-14&end_date=1998-12-14&detailed=true&api_key=t0TVs3DtDT2H8Oy2Zy8m2eVrNsAVKAexjcZXUckd",
    "self" : "https://api.nasa.gov/neo/rest/v1/feed?start_date=1998-12-15&end_date=1998-12-15&detailed=true&api_key=t0TVs3DtDT2H8Oy2Zy8m2eVrNsAVKAexjcZXUckd"
  },
  "element_count" : 1,
  "near_earth_objects" : {
    "1998-12-15" : [ {
      "links" : {
        "self" : "https://api.nasa.gov/neo/rest/v1/neo/2392704?api_key=t0TVs3DtDT2H8Oy2Zy8m2eVrNsAVKAexjcZXUckd"
      },
      "neo_reference_id" : "2392704",
      "name" : "392704 (2012 AE1)",
      "nasa_jpl_url" : "http://ssd.jpl.nasa.gov/sbdb.cgi?sstr=2392704",
      "absolute_magnitude_h" : 19.0,
      "estimated_diameter" : {
        "kilometers" : {
          "estimated_diameter_min" : 0.4212646106,
          "estimated_diameter_max" : 0.9419763057
        },
        "meters" : {
          "estimated_diameter_min" : 421.2646105562,
          "estimated_diameter_max" : 941.9763057186
        },
        "miles" : {
          "estimated_diameter_min" : 0.2617616123,
          "estimated_diameter_max" : 0.5853167591
        },
        "feet" : {
          "estimated_diameter_min" : 1382.1017848971,
          "estimated_diameter_max" : 3090.4735428537
        }
      },
      "is_potentially_hazardous_asteroid" : false,
      "close_approach_data" : [ {
        "close_approach_date" : "1998-12-15",
        "epoch_date_close_approach" : 913708800000,
        "relative_velocity" : {
          "kilometers_per_second" : "15.9540912886",
          "kilometers_per_hour" : "57434.7286389175",
          "miles_per_hour" : "35687.7068034429"
        },
        "miss_distance" : {
          "astronomical" : "0.1903316805",
          "lunar" : "74.039024353",
          "kilometers" : "28473214",
          "miles" : "17692436"
        },
        "orbiting_body" : "Earth"
      } ],
      "orbital_data" : {
        "orbit_id" : "45",
        "orbit_determination_date" : "2017-04-06 09:21:59",
        "orbit_uncertainty" : "0",
        "minimum_orbit_intersection" : ".145075",
        "jupiter_tisserand_invariant" : "4.385",
        "epoch_osculation" : "2458000.5",
        "eccentricity" : ".4727131956536391",
        "semi_major_axis" : "1.507920908906379",
        "inclination" : "10.0526071786867",
        "ascending_node_longitude" : "16.84008777859977",
        "orbital_period" : "676.3418664725997",
        "perihelion_distance" : ".7951067972643047",
        "perihelion_argument" : "356.5116194296238",
        "aphelion_distance" : "2.220735020548454",
        "perihelion_time" : "2457884.163552977446",
        "mean_anomaly" : "61.92300522004751",
        "mean_motion" : ".5322751966805599",
        "equinox" : "J2000"
      }
    } ]
  }
}